OBJECT_NAME,OBJECT_ID,EPOCH,MEAN_MOTION,ECCENTRICITY,INCLINATION,RA_OF_ASC_NODE,ARG_OF_PERICENTER,MEAN_ANOMALY,EPHEMERIS_TYPE,CLASSIFICATION_TYPE,NORAD_CAT_ID,ELEMENT_SET_NO,REV_AT_EPOCH,BSTAR,MEAN_MOTION_DOT,MEAN_MOTION_DDOT
STARLINK-4353,2022-084AB,2026-06-28T22:09:52.759584,15.05661462,.00014047,97.3039,238.3096,141.0856,219.0473,0,U,53214,999,21604,.68361339E-4,.93E-5,0
STARLINK-4335,2022-084AC,2026-06-29T03:26:50.859744,15.05659533,.0002119,97.2967,239.6695,101.6515,258.4950,0,U,53215,999,21667,-.79797E-4,-.1208E-4,0
STARLINK-4376,2022-084AD,2026-06-28T21:53:58.437024,15.05630356,.00019399,97.2993,238.3165,123.9168,236.2244,0,U,53216,999,21604,-.10269397E-4,-.205E-5,0
STARLINK-4384,2022-084AF,2026-06-28T22:17:00.754080,15.04833330,.00011409,97.3402,239.5548,111.7080,248.4269,0,U,53218,999,21664,.10300331E-4,.89E-6,0
STARLINK-4373,2022-084AG,2026-06-29T03:34:49.521792,15.05633459,.0001055,97.2965,239.6461,119.9624,240.1709,0,U,53219,999,21615,.28075E-3,.3995E-4,0
STARLINK-4363,2022-084AH,2026-06-28T21:57:55.162656,15.05661464,.00020444,97.2997,238.2980,109.7983,250.3465,0,U,53220,999,21656,.1007508E-4,.89E-6,0
STARLINK-4377,2022-084AJ,2026-06-29T03:24:55.177056,15.05621624,.0002079,97.2964,238.5837,89.6659,270.4806,0,U,53221,999,21608,.49467E-3,.7082E-4,0
STARLINK-4356,2022-084AM,2026-06-28T17:14:48.480288,15.05653038,.00015113,97.2996,238.0975,112.1355,248.0033,0,U,53224,999,21601,.51035224E-4,.68E-5,0
STARLINK-4358,2022-084AN,2026-06-29T10:01:35.351328,15.05698136,.000121,97.2958,239.8780,114.0786,246.0568,0,U,53225,999,21619,-.64001E-3,-.929E-4,0
STARLINK-4359,2022-084AP,2026-06-28T16:50:54.483936,15.05646591,.00020989,97.2996,238.1086,124.1877,235.9550,0,U,53226,999,21601,-.75351844E-4,-.1143E-4,0
STARLINK-4366,2022-084AQ,2026-06-28T17:36:41.026752,15.05681404,.00008869,97.3014,239.2542,129.7015,230.4291,0,U,53227,999,21609,-.38210419E-3,-.557E-4,0
STARLINK-4365,2022-084AR,2026-06-28T17:26:47.051808,15.05655613,.0001395,97.3020,238.2211,120.8140,239.3225,0,U,53228,999,21602,-.31270345E-4,-.508E-5,0
STARLINK-4367,2022-084AS,2026-06-29T09:41:35.588832,15.05671342,.0001505,97.3388,239.9327,95.1871,264.9529,0,U,53229,999,21619,-.64988E-4,-.995E-5,0
STARLINK-4364,2022-084AT,2026-06-28T21:59:53.911680,15.05651613,.00023551,97.2977,239.4807,97.9157,262.2338,0,U,53230,999,21612,-.71434803E-4,-.1087E-4,0
STARLINK-4370,2022-084AU,2026-06-28T22:15:48.638592,15.05664144,.00020706,97.3021,239.4514,169.0236,191.1038,0,U,53231,999,21612,.27397441E-4,.339E-5,0
STARLINK-4371,2022-084AV,2026-06-28T16:46:53.587776,15.05661326,.00023654,97.3005,238.0925,140.9538,219.1861,0,U,53232,999,21601,-.6992384E-4,-.1066E-4,0
STARLINK-4372,2022-084AW,2026-06-29T03:44:50.146080,15.05652127,.000243,97.2964,238.5350,118.3679,241.7794,0,U,53233,999,21608,.39129E-4,.508E-5,0
STARLINK-4368,2022-084AX,2026-06-29T12:00:02.998944,15.49095392,.00018,97.5999,242.5450,71.4693,270.2826,0,U,53234,999,589,.1985E-2,.109026E-2,0
STARLINK-4056,2022-086A,2026-06-28T22:05:51.129888,15.08835453,.00013572,53.1621,59.6112,89.6173,270.4974,0,U,53242,999,21810,.19659491E-4,.25E-6,0
STARLINK-4047,2022-086B,2026-06-28T23:00:46.304064,15.08832226,.00014707,53.1614,64.1425,91.0654,269.0506,0,U,53243,999,21806,.49315926E-4,.497E-5,0
STARLINK-4125,2022-086C,2026-06-29T07:33:47.159424,15.09496523,.0001972,53.1607,62.9191,103.5434,256.5777,0,U,53244,999,21809,.48684E-2,.79491E-3,0
STARLINK-4131,2022-086E,2026-06-28T23:32:25.153152,15.08981583,.00015919,53.1606,64.3502,90.4708,269.6466,0,U,53246,999,21693,.12894908E-2,.20374E-3,0
STARLINK-4061,2022-086F,2026-06-28T22:27:04.405824,15.08833101,.00014114,53.1621,59.7384,91.7956,268.3197,0,U,53247,999,21810,.49242559E-4,.496E-5,0
STARLINK-4135,2022-086G,2026-06-28T22:11:11.880384,15.08817963,.00013573,53.1614,59.7144,45.0052,315.1050,0,U,53248,999,21810,.77225237E-4,.941E-5,0
STARLINK-4128,2022-086H,2026-06-29T12:00:02.998944,15.26869022,.000108,53.1608,51.2941,121.8891,127.6005,0,U,53249,999,583,.46045E-1,.1356173E-1,0
STARLINK-4059,2022-086J,2026-06-29T12:00:02.998944,15.11556200,.000185,53.1602,51.9992,88.3538,137.0243,0,U,53250,999,583,.47162E-2,.81533E-3,0
STARLINK-4129,2022-086K,2026-06-29T12:00:02.998944,15.23575635,.0001709,53.1608,51.3884,111.7509,129.9896,0,U,53251,999,583,.50319E-2,.123647E-2,0
STARLINK-4132,2022-086L,2026-06-29T12:00:02.998944,15.24077134,.0001843,53.1600,51.4430,94.9895,72.7208,0,U,53252,999,578,.49116E-1,.1328156E-1,0
STARLINK-4133,2022-086M,2026-06-29T12:00:02.998944,15.21901163,.0001878,53.1609,51.4718,95.9832,122.8186,0,U,53253,999,583,.3733E-2,.86769E-3,0
STARLINK-4134,2022-086N,2026-06-28T22:10:32.260800,15.08832248,.00014045,53.1619,54.6190,85.4356,274.6796,0,U,53254,999,21787,.63955021E-4,.73E-5,0
