[
  {
    "name": "STARLINK-4353",
    "noradId": "53214",
    "line1": "1 53214U 22084AB  26179.92352731  .00000930  00000+0  68361-4 0  9997",
    "line2": "2 53214  97.3039 238.3096 0001404 141.0856 219.0473 15.05661462216048"
  },
  {
    "name": "STARLINK-4335",
    "noradId": "53215",
    "line1": "1 53215U 22084AC  26180.14364421 -.00001208  00000+0 -79797-4 0  9999",
    "line2": "2 53215  97.2967 239.6695 0002119 101.6515 258.4950 15.05659533216677"
  },
  {
    "name": "STARLINK-4376",
    "noradId": "53216",
    "line1": "1 53216U 22084AD  26179.91248191 -.00000205  00000+0 -10269-4 0  9993",
    "line2": "2 53216  97.2993 238.3165 0001939 123.9168 236.2244 15.05630356216048"
  },
  {
    "name": "STARLINK-4384",
    "noradId": "53218",
    "line1": "1 53218U 22084AF  26179.92848095  .00000089  00000+0  10300-4 0  9999",
    "line2": "2 53218  97.3402 239.5548 0001140 111.7080 248.4269 15.04833330216640"
  },
  {
    "name": "STARLINK-4373",
    "noradId": "53219",
    "line1": "1 53219U 22084AG  26180.14918428  .00003995  00000+0  28075-3 0  9990",
    "line2": "2 53219  97.2965 239.6461 0001055 119.9624 240.1709 15.05633459216153"
  },
  {
    "name": "STARLINK-4363",
    "noradId": "53220",
    "line1": "1 53220U 22084AH  26179.91522179  .00000089  00000+0  10075-4 0  9992",
    "line2": "2 53220  97.2997 238.2980 0002044 109.7983 250.3465 15.05661464216569"
  },
  {
    "name": "STARLINK-4377",
    "noradId": "53221",
    "line1": "1 53221U 22084AJ  26180.14230529  .00007082  00000+0  49467-3 0  9991",
    "line2": "2 53221  97.2964 238.5837 0002079  89.6659 270.4806 15.05621624216085"
  },
  {
    "name": "STARLINK-4356",
    "noradId": "53224",
    "line1": "1 53224U 22084AM  26179.71861667  .00000680  00000+0  51035-4 0  9990",
    "line2": "2 53224  97.2996 238.0975 0001511 112.1355 248.0033 15.05653038216016"
  },
  {
    "name": "STARLINK-4358",
    "noradId": "53225",
    "line1": "1 53225U 22084AN  26180.41777027 -.00009290  00000+0 -64001-3 0  9990",
    "line2": "2 53225  97.2958 239.8780 0001210 114.0786 246.0568 15.05698136216191"
  },
  {
    "name": "STARLINK-4359",
    "noradId": "53226",
    "line1": "1 53226U 22084AP  26179.70201949 -.00001143  00000+0 -75352-4 0  9997",
    "line2": "2 53226  97.2996 238.1086 0002098 124.1877 235.9550 15.05646591216010"
  },
  {
    "name": "STARLINK-4366",
    "noradId": "53227",
    "line1": "1 53227U 22084AQ  26179.73380818 -.00005570  00000+0 -38210-3 0  9993",
    "line2": "2 53227  97.3014 239.2542 0000886 129.7015 230.4291 15.05681404216092"
  },
  {
    "name": "STARLINK-4365",
    "noradId": "53228",
    "line1": "1 53228U 22084AR  26179.72693347 -.00000508  00000+0 -31270-4 0  9993",
    "line2": "2 53228  97.3020 238.2211 0001395 120.8140 239.3225 15.05655613216020"
  },
  {
    "name": "STARLINK-4367",
    "noradId": "53229",
    "line1": "1 53229U 22084AS  26180.40388413 -.00000995  00000+0 -64988-4 0  9998",
    "line2": "2 53229  97.3388 239.9327 0001505  95.1871 264.9529 15.05671342216198"
  },
  {
    "name": "STARLINK-4364",
    "noradId": "53230",
    "line1": "1 53230U 22084AT  26179.91659620 -.00001087  00000+0 -71435-4 0  9993",
    "line2": "2 53230  97.2977 239.4807 0002355  97.9157 262.2338 15.05651613216123"
  },
  {
    "name": "STARLINK-4370",
    "noradId": "53231",
    "line1": "1 53231U 22084AU  26179.92764628  .00000339  00000+0  27397-4 0  9995",
    "line2": "2 53231  97.3021 239.4514 0002070 169.0236 191.1038 15.05664144216123"
  },
  {
    "name": "STARLINK-4371",
    "noradId": "53232",
    "line1": "1 53232U 22084AV  26179.69923134 -.00001066  00000+0 -69924-4 0  9991",
    "line2": "2 53232  97.3005 238.0925 0002365 140.9538 219.1861 15.05661326216019"
  },
  {
    "name": "STARLINK-4372",
    "noradId": "53233",
    "line1": "1 53233U 22084AW  26180.15613595  .00000508  00000+0  39129-4 0  9994",
    "line2": "2 53233  97.2964 238.5350 0002430 118.3679 241.7794 15.05652127216080"
  },
  {
    "name": "STARLINK-4368",
    "noradId": "53234",
    "line1": "1 53234U 22084AX  26180.50003471  .00109026  00000+0  19850-2 0  9992",
    "line2": "2 53234  97.5999 242.5450 0001800  71.4693 270.2826 15.49095392  5894"
  },
  {
    "name": "STARLINK-4056",
    "noradId": "53242",
    "line1": "1 53242U 22086A   26179.92073067  .00000025  00000+0  19659-4 0  9993",
    "line2": "2 53242  53.1621  59.6112 0001357  89.6173 270.4974 15.08835453218107"
  },
  {
    "name": "STARLINK-4047",
    "noradId": "53243",
    "line1": "1 53243U 22086B   26179.95886926  .00000497  00000+0  49316-4 0  9999",
    "line2": "2 53243  53.1614  64.1425 0001470  91.0654 269.0506 15.08832226218060"
  },
  {
    "name": "STARLINK-4125",
    "noradId": "53244",
    "line1": "1 53244U 22086C   26180.31512916  .00079491  00000+0  48684-2 0  9992",
    "line2": "2 53244  53.1607  62.9191 0001972 103.5434 256.5777 15.09496523218092"
  },
  {
    "name": "STARLINK-4131",
    "noradId": "53246",
    "line1": "1 53246U 22086E   26179.98084668  .00020374  00000+0  12895-2 0  9994",
    "line2": "2 53246  53.1606  64.3502 0001591  90.4708 269.6466 15.08981583216935"
  },
  {
    "name": "STARLINK-4061",
    "noradId": "53247",
    "line1": "1 53247U 22086F   26179.93546766  .00000496  00000+0  49243-4 0  9994",
    "line2": "2 53247  53.1621  59.7384 0001411  91.7956 268.3197 15.08833101218109"
  },
  {
    "name": "STARLINK-4135",
    "noradId": "53248",
    "line1": "1 53248U 22086G   26179.92444306  .00000941  00000+0  77225-4 0  9997",
    "line2": "2 53248  53.1614  59.7144 0001357  45.0052 315.1050 15.08817963218101"
  },
  {
    "name": "STARLINK-4128",
    "noradId": "53249",
    "line1": "1 53249U 22086H   26180.50003471  .01356173  00000+0  46045-1 0  9993",
    "line2": "2 53249  53.1608  51.2941 0001080 121.8891 127.6005 15.26869022  5837"
  },
  {
    "name": "STARLINK-4059",
    "noradId": "53250",
    "line1": "1 53250U 22086J   26180.50003471  .00081533  00000+0  47162-2 0  9991",
    "line2": "2 53250  53.1602  51.9992 0001850  88.3538 137.0243 15.11556200  5830"
  },
  {
    "name": "STARLINK-4129",
    "noradId": "53251",
    "line1": "1 53251U 22086K   26180.50003471  .00123647  00000+0  50319-2 0  9993",
    "line2": "2 53251  53.1608  51.3884 0001709 111.7509 129.9896 15.23575635  5833"
  },
  {
    "name": "STARLINK-4132",
    "noradId": "53252",
    "line1": "1 53252U 22086L   26180.50003471  .01328156  00000+0  49116-1 0  9999",
    "line2": "2 53252  53.1600  51.4430 0001843  94.9895  72.7208 15.24077134  5781"
  },
  {
    "name": "STARLINK-4133",
    "noradId": "53253",
    "line1": "1 53253U 22086M   26180.50003471  .00086769  00000+0  37330-2 0  9996",
    "line2": "2 53253  53.1609  51.4718 0001878  95.9832 122.8186 15.21901163  5833"
  },
  {
    "name": "STARLINK-4134",
    "noradId": "53254",
    "line1": "1 53254U 22086N   26179.92398450  .00000730  00000+0  63955-4 0  9993",
    "line2": "2 53254  53.1619  54.6190 0001404  85.4356 274.6796 15.08832248217878"
  }
]